OPTICUBE 04             
1 41851U 16067D   24304.45084020  .00010225  00000+0  73050-3 0  9992
2 41851  98.0840 115.3289 0016943 325.9034  34.1101 15.04586839435560
AEROCUBE 8D             
1 41852U 16067E   24304.06131316  .00023682  00000+0  13965-2 0  9990
2 41852  98.1118 121.0278 0005001  22.6654 337.4794 15.11559318435741
AEROCUBE 8C             
1 41853U 16067F   24304.01094734  .00023642  00000+0  13938-2 0  9994
2 41853  98.0947 119.2274 0006444 309.7479  50.3182 15.11561748435722
PROMETHEUS 2-1          
1 41854U 16067G   24304.25214512  .00063692  00000+0  24639-2 0  9998
2 41854  98.0970 129.4647 0010138 317.3174  42.7274 15.25918772436263
PROMETHEUS 2-3          
1 41855U 16067H   24304.25332441  .00061248  00000+0  23772-2 0  9993
2 41855  98.0906 128.8241 0008791 328.3489  31.7217 15.25832515436264
CORVUS BC2              
1 42846U 17042X   24304.46601629  .00013375  00000+0  10823-2 0  9999
2 42846  97.3772 122.2443 0008184 336.9543  23.1313 14.99844816397706
CORVUS BC1              
1 42847U 17042Y   24304.01275360  .00012389  00000+0  10000-2 0  9991
2 42847  97.3724 122.2358 0008516 321.6561  38.4057 14.99956509397650
MIRATA                  
1 43015U 17073C   24304.24871535  .00073362  00000+0  26686-2 0  9999
2 43015  97.5708 188.1745 0142722 155.1415 205.6785 15.18836938376747
MAKERSAT 0              
1 43016U 17073D   24304.62278650  .00036533  00000+0  18364-2 0  9994
2 43016  97.5479 180.1585 0175514 182.5394 177.4960 15.04649585376232
SIRION PATHFINDER-2     
1 43759U 18099B   24304.42115654  .00018592  00000+0  12903-2 0  9997
2 43759  97.5135 356.8715 0010505 179.0592 181.0656 15.05578702322834
CORVUS BC4              
1 43767U 18099K   24304.39481594  .00015907  00000+0  11362-2 0  9996
2 43767  97.4965 353.6125 0008201 237.9123 122.1308 15.04551352322704
MOVE-II                 
1 43780U 18099Y   24304.13285058  .00081887  00000+0  30091-2 0  9990
2 43780  97.5035   6.6767 0004833 217.1204 142.9701 15.27570907323432
SPACEBEE-7              
1 43816U 18099BL  24304.43011606  .00054928  00000+0  25975-2 0  9990
2 43816  97.5317   6.9810 0008808 172.6736 187.4629 15.19144665322888
SPACEBEE-6              
1 43818U 18099BN  24304.44809324  .00213933  00000+0  42636-2 0  9991
2 43818  97.5218  15.7137 0005570 180.5201 179.6043 15.46064298323616
SHIELDS 1               
1 43850U 18104B   24304.41578662  .00044768  00000+0  95055-3 0  9991
2 43850  85.0248 190.9234 0006433 292.2820  67.7752 15.44824031326982
SONATE                  
1 44400U 19038Q   24304.28112552  .00080508  00000+0  16897-2 0  9995
2 44400  97.7146 305.3848 0012459 357.6432   2.4755 15.45000131294851
LUCKY-7                 
1 44406U 19038W   24304.59809620  .00248510  00000+0  19423-2 0  9991
2 44406  97.6949 312.8760 0004493 345.2975  14.8155 15.70878036295393
DUCHIFAT-3              
1 44854U 19089C   24304.71988913  .00055109  00000+0  21583-2 0  9991
2 44854  36.9541 301.7485 0010119 176.2052 183.8776 15.24752552268833
M2 PATHFINDER           
1 45727U 20037E   24304.45221840  .00012146  00000+0  10020-2 0  9994
2 45727  97.7827 120.4075 0012598  39.8086 320.4058 14.99101880236199
NETSAT-4                
1 46504U 20068U   24304.85515053  .00033443  00000+0  15346-2 0  9997
2 46504  97.8205 266.2127 0006280 250.0489 110.0068 15.20333175224747
NETSAT-3                
1 46505U 20068V   24304.36600209  .00032210  00000+0  15069-2 0  9995
2 46505  97.8191 265.0436 0005651 267.2058  92.8529 15.19676686224659
NETSAT-1                
1 46506U 20068W   24304.33493672  .00024794  00000+0  12537-2 0  9992
2 46506  97.8213 264.0864 0005114 284.8410  75.2255 15.17028480224584
NETSAT-2                
1 46507U 20068X   24304.34920860  .00031463  00000+0  14501-2 0  9992
2 46507  97.8190 265.2818 0003986 295.2292  64.8528 15.20205292224613
WILDTRACKCUBE-SIMBA     
1 47941U 21022K   24304.84816294  .00050971  00000+0  18085-2 0  9992
2 47941  97.4424 200.8586 0015217  36.2638 323.9630 15.28779998199134
GRBALPHA                
1 47959U 21022AD  24304.82627397  .00083639  00000+0  22631-2 0  9992
2 47959  97.4419 203.9060 0012988  30.2543 329.9448 15.37297505198152
BEESAT-8                
1 48085U 21022AP  24304.00430359  .00152661  00000+0  27226-2 0  9990
2 48085  97.4682 208.6911 0010157  30.4530 329.7308 15.49473611198617
LEDSAT                  
1 49069U 21073D   24304.63313536  .00063652  00000+0  19221-2 0  9992
2 49069  97.4229  15.4830 0016361 161.3398 198.8448 15.33895272177149
ROBUSTA-1F (MTCUBE 2)   
1 53109U 22080E   24301.54092252 -.00000003  00000+0  00000+0 0  9991
2 53109  70.1158 146.1070 0008326  60.2568 299.8919  6.42584206 53661
SITRO-AIS 5 (KATYS)     
1 57176U 23091L   24304.85029526  .00026154  00000+0  14901-2 0  9995
2 57176  97.5951 356.0900 0016738  22.1103 338.0846 15.12663460 73973
SITRO-AIS 6 (CHIRKIN)   
1 57192U 23091AC  24304.83125650  .00027166  00000+0  15464-2 0  9995
2 57192  97.5953 356.1017 0016572  21.8982 338.2954 15.12688354 73971
SITRO-AIS 8 (ANOKHIN)   
1 57193U 23091AD  24304.82510815  .00029494  00000+0  16485-2 0  9996
2 57193  97.5951 356.2523 0016274  22.8050 337.3900 15.13329956 73982
SITRO-AIS 7 (FARTUSHNIY)
1 57194U 23091AE  24304.84151541  .00026495  00000+0  15118-2 0  9996
2 57194  97.5947 356.0797 0016453  22.4375 337.7572 15.12610690 73979
SITRO-AIS 10 (BURDAEV)  
1 57199U 23091AK  24304.81669068  .00032069  00000+0  16853-2 0  9997
2 57199  97.5968 357.5829 0011452  12.3156 347.8354 15.15563833 74068
SITRO-AIS 9 (SHCHUKIN)  
1 57201U 23091AM  24304.75145001  .00030892  00000+0  16263-2 0  9997
2 57201  97.5964 357.4844 0011348  12.8340 347.3179 15.15510216 74054
SITRO-AIS 12 (SMIRENNIY)
1 57204U 23091AQ  24304.82856375  .00030148  00000+0  15786-2 0  9994
2 57204  97.5971 357.7479 0011105   6.1169 354.0197 15.15709048 74078
SITRO-AIS 11 (SHEFFER)  
1 57208U 23091AU  24304.80471603  .00031083  00000+0  16213-2 0  9998
2 57208  97.5968 357.7652 0010967   7.1936 352.9451 15.15840426 74075
VERONIKA                
1 58261U 23174F   24304.79330821  .00074275  00000+0  24134-2 0  9995
2 58261  97.4468  19.0586 0010534 124.3546 235.8693 15.31580525 54380
ROBUSTA-1E (ENSO)       
1 58470U 23185J   24304.86427617  .00059551  00000+0  19151-2 0  9990
2 58470  97.4101  10.7403 0011071 154.7548 205.4237 15.31977263 50841
SITRO-AIS 29            
1 59052U 24039B   24304.87471091  .00089352  00000+0  21716-2 0  9994
2 59052  97.4048 266.8861 0018164  92.1573 268.1753 15.40485197 37386
SITRO-AIS 30            
1 59053U 24039C   24304.88896681  .00082460  00000+0  20296-2 0  9997
2 59053  97.4051 266.8611 0018468  93.0052 267.3307 15.40124100 37372
SITRO-AIS 31            
1 59054U 24039D   24304.86446283  .00088904  00000+0  21636-2 0  9993
2 59054  97.4048 266.8948 0018066  92.8471 267.4843 15.40448391 37397
SITRO-AIS 33            
1 59055U 24039E   24304.84565451  .00088313  00000+0  21420-2 0  9996
2 59055  97.4052 266.9303 0017929  93.5715 266.7582 15.40555746 37389
SITRO-AIS 35            
1 59056U 24039F   24304.84081209  .00087556  00000+0  21235-2 0  9993
2 59056  97.4052 266.9322 0017743  93.6651 266.6625 15.40564201 37388
SITRO-AIS 32            
1 59057U 24039G   24304.86152045  .00088588  00000+0  21665-2 0  9996
2 59057  97.4055 266.9098 0017886  93.7816 266.5476 15.40304439 37382
SITRO-AIS 34            
1 59058U 24039H   24304.84541424  .00088143  00000+0  21348-2 0  9993
2 59058  97.4054 266.9324 0017800  93.6432 266.6850 15.40602345 37387
SITRO-AIS 36            
1 59059U 24039J   24304.82797003  .00087597  00000+0  21158-2 0  9999
2 59059  97.4052 266.9499 0017702  93.7951 266.5320 15.40689004 37385
SITRO-AIS 49            
1 59060U 24039K   24304.83784306  .00084891  00000+0  20685-2 0  9992
2 59060  97.4059 266.9386 0017653  93.0659 267.2607 15.40435140 37388
SITRO-AIS 50            
1 59061U 24039L   24304.87096926  .00089443  00000+0  21418-2 0  9994
2 59061  97.4050 267.0433 0017534  93.0666 267.2587 15.40946225 37390
SITRO-AIS 51            
1 59062U 24039M   24304.87017294  .00089086  00000+0  21338-2 0  9990
2 59062  97.4049 267.0433 0017516  93.2827 267.0423 15.40940356 37396
SITRO-AIS 52            
1 59063U 24039N   24304.85422658  .00090103  00000+0  21486-2 0  9999
2 59063  97.4051 267.0679 0017291  93.2377 267.0848 15.41074550 37398
SITRO-AIS 25            
1 59066U 24039R   24304.74335244  .00014313  00000+0  13025-2 0  9993
2 59066  95.3903 189.2563 0162652 235.6579 122.9163 14.85612623 36214
SITRO-AIS 26            
1 59067U 24039S   24304.81590396  .00015570  00000+0  14198-2 0  9991
2 59067  95.3903 189.2966 0162834 235.4510 123.1252 14.85501644 36220
SITRO-AIS 27            
1 59068U 24039T   24304.85565731  .00014590  00000+0  13243-2 0  9992
2 59068  95.3909 189.3731 0162146 235.0089 123.5821 14.85760495 36239
SITRO-AIS 28            
1 59071U 24039U   24304.84892401  .00015274  00000+0  13850-2 0  9996
2 59071  95.3909 189.3817 0161986 234.9629 123.6304 14.85809304 36237
GRBBETA                 
1 60237U 24128C   24304.22533192  .00012847  00000+0  10659-2 0  9999
2 60237  61.9929 132.7730 0023324 357.7498   2.3482 14.98904335 16828
OOV-CUBE (TUBSAT-30)    
1 60240U 24128F   24303.95079683  .00009179  00000+0  79045-3 0  9991
2 60240  61.9963 134.2529 0021445 351.7223   8.3508 14.97752575 16781
ROBUSTA-3A (MEDITERRAN*)
1 60243U 24128J   24303.94753328  .00019271  00000+0  15971-2 0  9999
2 60243  61.9898 134.1494 0021469 342.8006  17.2353 14.98743948 16789
